{"type": "FeatureCollection", "features": [{"type": "Feature", "properties": {"norad_id": 22490, "name": "SCD 1", "group": "resource", "lat": 20.491448408114273, "lon": 29.920114545261605, "alt_km": 763.039506811384, "timestamp": "2025-12-03T08:58:45.655335+00:00", "meta": {"OBJECT_NAME": "SCD 1", "OBJECT_ID": "1993-009B", "EPOCH": "2025-12-03T02:19:49.859040", "MEAN_MOTION": 14.45987403, "ECCENTRICITY": 0.0041827, "INCLINATION": 24.971, "RA_OF_ASC_NODE": 338.2102, "ARG_OF_PERICENTER": 222.4494, "MEAN_ANOMALY": 188.6826, "EPHEMERIS_TYPE": 0, "CLASSIFICATION_TYPE": "U", "NORAD_CAT_ID": 22490, "ELEMENT_SET_NO": 999, "REV_AT_EPOCH": 73270, "BSTAR": 0.00012677, "MEAN_MOTION_DOT": 6.5e-06, "MEAN_MOTION_DDOT": 0}, "tle": {"line1": "1 22490U 93009B   25337.09710485  .00000650  00000+0  12677-3 0  9998", "line2": "2 22490  24.9710 338.2102 0041827 222.4494 188.6826 14.45987403732703"}}, "geometry": {"type": "Point", "coordinates": [29.920114545261605, 20.491448408114273]}}, {"type": "Feature", "properties": {"norad_id": 25397, "name": "TECHSAT 1B (GO-32)", "group": "resource", "lat": 50.62652105062161, "lon": -50.753686352957665, "alt_km": 804.3935820379102, "timestamp": "2025-12-03T08:58:45.655372+00:00", "meta": {"OBJECT_NAME": "TECHSAT 1B (GO-32)", "OBJECT_ID": "1998-043D", "EPOCH": "2025-12-02T22:37:23.051424", "MEAN_MOTION": 14.24372494, "ECCENTRICITY": 0.0002246, "INCLINATION": 98.9913, "RA_OF_ASC_NODE": 319.9291, "ARG_OF_PERICENTER": 73.6007, "MEAN_ANOMALY": 286.5418, "EPHEMERIS_TYPE": 0, "CLASSIFICATION_TYPE": "U", "NORAD_CAT_ID": 25397, "ELEMENT_SET_NO": 999, "REV_AT_EPOCH": 42339, "BSTAR": 8.0125e-05, "MEAN_MOTION_DOT": 1.39e-06, "MEAN_MOTION_DDOT": 0}, "tle": {"line1": "1 25397U 98043D   25336.94262791  .00000139  00000+0  80125-4 0  9991", "line2": "2 25397  98.9913 319.9291 0002246  73.6007 286.5418 14.24372494423393"}}, "geometry": {"type": "Point", "coordinates": [-50.753686352957665, 50.62652105062161]}}, {"type": "Feature", "properties": {"norad_id": 25504, "name": "SCD 2", "group": "resource", "lat": 23.73827758098593, "lon": -51.07835460867882, "alt_km": 738.3985358333994, "timestamp": "2025-12-03T08:58:45.655390+00:00", "meta": {"OBJECT_NAME": "SCD 2", "OBJECT_ID": "1998-060A", "EPOCH": "2025-12-02T08:22:08.651136", "MEAN_MOTION": 14.45414, "ECCENTRICITY": 0.00167262, "INCLINATION": 24.9937, "RA_OF_ASC_NODE": 205.9699, "ARG_OF_PERICENTER": 202.5525, "MEAN_ANOMALY": 318.5622, "EPHEMERIS_TYPE": 0, "CLASSIFICATION_TYPE": "U", "NORAD_CAT_ID": 25504, "ELEMENT_SET_NO": 999, "REV_AT_EPOCH": 43181, "BSTAR": 9.8916166e-05, "MEAN_MOTION_DOT": 5.36e-06, "MEAN_MOTION_DDOT": 0}, "tle": {"line1": "1 25504U 98060A   25336.34871124  .00000536  00000+0  98916-4 0  9998", "line2": "2 25504  24.9937 205.9699 0016726 202.5525 318.5622 14.45414000431812"}}, "geometry": {"type": "Point", "coordinates": [-51.07835460867882, 23.73827758098593]}}, {"type": "Feature", "properties": {"norad_id": 25757, "name": "DLR-TUBSAT", "group": "resource", "lat": 47.24456163080268, "lon": -47.88369155490507, "alt_km": 723.230336810976, "timestamp": "2025-12-03T08:58:45.655404+00:00", "meta": {"OBJECT_NAME": "DLR-TUBSAT", "OBJECT_ID": "1999-029B", "EPOCH": "2025-12-03T05:27:06.499584", "MEAN_MOTION": 14.52351559, "ECCENTRICITY": 0.0013388, "INCLINATION": 98.6555, "RA_OF_ASC_NODE": 321.4478, "ARG_OF_PERICENTER": 222.7864, "MEAN_ANOMALY": 137.2289, "EPHEMERIS_TYPE": 0, "CLASSIFICATION_TYPE": "U", "NORAD_CAT_ID": 25757, "ELEMENT_SET_NO": 999, "REV_AT_EPOCH": 40480, "BSTAR": 6.0372e-05, "MEAN_MOTION_DOT": 1.97e-06, "MEAN_MOTION_DDOT": 0}, "tle": {"line1": "1 25757U 99029B   25337.22715856  .00000197  00000+0  60372-4 0  9999", "line2": "2 25757  98.6555 321.4478 0013388 222.7864 137.2289 14.52351559404807"}}, "geometry": {"type": "Point", "coordinates": [-47.88369155490507, 47.24456163080268]}}, {"type": "Feature", "properties": {"norad_id": 25994, "name": "TERRA", "group": "resource", "lat": -3.4280221056027433, "lon": -151.07964307177267, "alt_km": 692.6463682795365, "timestamp": "2025-12-03T08:58:45.655417+00:00", "meta": {"OBJECT_NAME": "TERRA", "OBJECT_ID": "1999-068A", "EPOCH": "2025-12-03T03:19:40.019232", "MEAN_MOTION": 14.60934154, "ECCENTRICITY": 0.0003395, "INCLINATION": 97.9762, "RA_OF_ASC_NODE": 29.1747, "ARG_OF_PERICENTER": 117.151, "MEAN_ANOMALY": 268.409, "EPHEMERIS_TYPE": 0, "CLASSIFICATION_TYPE": "U", "NORAD_CAT_ID": 25994, "ELEMENT_SET_NO": 999, "REV_AT_EPOCH": 38098, "BSTAR": 0.0001522, "MEAN_MOTION_DOT": 7.01e-06, "MEAN_MOTION_DDOT": 0}, "tle": {"line1": "1 25994U 99068A   25337.13865763  .00000701  00000+0  15220-3 0  9990", "line2": "2 25994  97.9762  29.1747 0003395 117.1510 268.4090 14.60934154380981"}}, "geometry": {"type": "Point", "coordinates": [-151.07964307177267, -3.4280221056027433]}}, {"type": "Feature", "properties": {"norad_id": 27004, "name": "MAROC-TUBSAT", "group": "resource", "lat": -15.98199170955735, "lon": 148.48968622020803, "alt_km": 995.9801889438149, "timestamp": "2025-12-03T08:58:45.655430+00:00", "meta": {"OBJECT_NAME": "MAROC-TUBSAT", "OBJECT_ID": "2001-056D", "EPOCH": "2025-12-03T00:51:45.195264", "MEAN_MOTION": 13.70252146, "ECCENTRICITY": 0.0019107, "INCLINATION": 99.7912, "RA_OF_ASC_NODE": 145.311, "ARG_OF_PERICENTER": 285.989, "MEAN_ANOMALY": 190.2699, "EPHEMERIS_TYPE": 0, "CLASSIFICATION_TYPE": "U", "NORAD_CAT_ID": 27004, "ELEMENT_SET_NO": 999, "REV_AT_EPOCH": 19932, "BSTAR": 3.3076e-05, "MEAN_MOTION_DOT": -1.8e-07, "MEAN_MOTION_DDOT": 0}, "tle": {"line1": "1 27004U 01056D   25337.03593976 -.00000018  00000+0  33076-4 0  9999", "line2": "2 27004  99.7912 145.3110 0019107 285.9890 190.2699 13.70252146199327"}}, "geometry": {"type": "Point", "coordinates": [148.48968622020803, -15.98199170955735]}}, {"type": "Feature", "properties": {"norad_id": 27424, "name": "AQUA", "group": "resource", "lat": 28.346437463330208, "lon": -66.47179200209642, "alt_km": 686.0851015782382, "timestamp": "2025-12-03T08:58:45.655443+00:00", "meta": {"OBJECT_NAME": "AQUA", "OBJECT_ID": "2002-022A", "EPOCH": "2025-12-03T04:29:29.314176", "MEAN_MOTION": 14.61770701, "ECCENTRICITY": 7.46e-05, "INCLINATION": 98.4024, "RA_OF_ASC_NODE": 297.9119, "ARG_OF_PERICENTER": 108.0837, "MEAN_ANOMALY": 17.2527, "EPHEMERIS_TYPE": 0, "CLASSIFICATION_TYPE": "U", "NORAD_CAT_ID": 27424, "ELEMENT_SET_NO": 999, "REV_AT_EPOCH": 25463, "BSTAR": 0.0003102, "MEAN_MOTION_DOT": 1.498e-05, "MEAN_MOTION_DDOT": 0}, "tle": {"line1": "1 27424U 02022A   25337.18714484  .00001498  00000+0  31020-3 0  9992", "line2": "2 27424  98.4024 297.9119 0000746 108.0837  17.2527 14.61770701254638"}}, "geometry": {"type": "Point", "coordinates": [-66.47179200209642, 28.346437463330208]}}, {"type": "Feature", "properties": {"norad_id": 28051, "name": "IRS-P6 (RESOURCESAT-1)", "group": "resource", "lat": 38.68861799756403, "lon": 11.567900836778263, "alt_km": 813.3587017392974, "timestamp": "2025-12-03T08:58:45.655455+00:00", "meta": {"OBJECT_NAME": "IRS-P6 (RESOURCESAT-1)", "OBJECT_ID": "2003-046A", "EPOCH": "2025-12-03T05:48:43.284096", "MEAN_MOTION": 14.36067238, "ECCENTRICITY": 0.0063645, "INCLINATION": 98.2191, "RA_OF_ASC_NODE": 18.0888, "ARG_OF_PERICENTER": 209.2969, "MEAN_ANOMALY": 228.2094, "EPHEMERIS_TYPE": 0, "CLASSIFICATION_TYPE": "U", "NORAD_CAT_ID": 28051, "ELEMENT_SET_NO": 999, "REV_AT_EPOCH": 15240, "BSTAR": 0.00011756, "MEAN_MOTION_DOT": 3.09e-06, "MEAN_MOTION_DDOT": 0}, "tle": {"line1": "1 28051U 03046A   25337.24216764  .00000309  00000+0  11756-3 0  9995", "line2": "2 28051  98.2191  18.0888 0063645 209.2969 228.2094 14.36067238152401"}}, "geometry": {"type": "Point", "coordinates": [11.567900836778263, 38.68861799756403]}}, {"type": "Feature", "properties": {"norad_id": 28220, "name": "SHIYAN-1 (SY-1)", "group": "resource", "lat": 58.66365157735199, "lon": 25.187164383335627, "alt_km": 474.6590775277309, "timestamp": "2025-12-03T08:58:45.655467+00:00", "meta": {"OBJECT_NAME": "SHIYAN-1 (SY-1)", "OBJECT_ID": "2004-012A", "EPOCH": "2025-12-03T04:00:14.321952", "MEAN_MOTION": 15.27750794, "ECCENTRICITY": 0.0006339, "INCLINATION": 97.8957, "RA_OF_ASC_NODE": 38.143, "ARG_OF_PERICENTER": 0.9771, "MEAN_ANOMALY": 359.1478, "EPHEMERIS_TYPE": 0, "CLASSIFICATION_TYPE": "U", "NORAD_CAT_ID": 28220, "ELEMENT_SET_NO": 999, "REV_AT_EPOCH": 18110, "BSTAR": 0.0006145, "MEAN_MOTION_DOT": 0.00016607, "MEAN_MOTION_DDOT": 0}, "tle": {"line1": "1 28220U 04012A   25337.16683243  .00016607  00000+0  61450-3 0  9992", "line2": "2 28220  97.8957  38.1430 0006339   0.9771 359.1478 15.27750794181100"}}, "geometry": {"type": "Point", "coordinates": [25.187164383335627, 58.66365157735199]}}, {"type": "Feature", "properties": {"norad_id": 28376, "name": "AURA", "group": "resource", "lat": -9.216762965560553, "lon": 106.19794020319155, "alt_km": 694.4620430082714, "timestamp": "2025-12-03T08:58:45.655479+00:00", "meta": {"OBJECT_NAME": "AURA", "OBJECT_ID": "2004-026A", "EPOCH": "2025-12-03T03:11:05.183232", "MEAN_MOTION": 14.60908511, "ECCENTRICITY": 0.0001082, "INCLINATION": 98.317, "RA_OF_ASC_NODE": 287.3156, "ARG_OF_PERICENTER": 90.8294, "MEAN_ANOMALY": 269.3031, "EPHEMERIS_TYPE": 0, "CLASSIFICATION_TYPE": "U", "NORAD_CAT_ID": 28376, "ELEMENT_SET_NO": 999, "REV_AT_EPOCH": 13758, "BSTAR": 0.00032115, "MEAN_MOTION_DOT": 1.524e-05, "MEAN_MOTION_DDOT": 0}, "tle": {"line1": "1 28376U 04026A   25337.13269888  .00001524  00000+0  32115-3 0  9999", "line2": "2 28376  98.3170 287.3156 0001082  90.8294 269.3031 14.60908511137584"}}, "geometry": {"type": "Point", "coordinates": [106.19794020319155, -9.216762965560553]}}]}